NORAD_CAT_ID,OBJECT_NAME,OBJECT_TYPE,EPOCH,MEAN_MOTION,ECCENTRICITY,INCLINATION,RA_OF_ASC_NODE,ARG_OF_PERICENTER,MEAN_ANOMALY,BSTAR,MEAN_MOTION_DOT,MEAN_MOTION_DDOT,TLE_LINE0,TLE_LINE1,TLE_LINE2,SEMIMAJOR_AXIS,PERIOD,APOGEE,PERIGEE,DECAYED
51755.0,STARLINK-3460,PAYLOAD,2023-02-10 23:46:23,15.08867502,6.33e-05,53.2145,309.1179,68.4667,291.6393,0.0026082,0.00041497,0.0,0 STARLINK-3460,1 51755U 22016AT  23041.99054650  .00041497  00000-0  26082-2 0  9997,2 51755  53.2145 309.1179 0000633  68.4667 291.6393 15.08867502 55324,6917.796,95.436,540.099,539.223,0.0
51755.0,STARLINK-3460,PAYLOAD,2023-02-11 01:21:46,15.08877408,6.18e-05,53.2147,308.8201,68.2867,291.8191,0.0032678,0.00052158,0.0,0 STARLINK-3460,1 51755U 22016AT  23042.05678447  .00052158  00000-0  32678-2 0  9995,2 51755  53.2147 308.8201 0000618  68.2867 291.8191 15.08877408 55336,6917.766,95.435,540.059,539.204,0.0
51755.0,STARLINK-3460,PAYLOAD,2023-02-11 17:15:38,15.08858946,0.0001081,53.215,305.8459,82.3971,277.7144,0.0035724,0.00057057,0.0,0 STARLINK-3460,1 51755U 22016AT  23042.71919280  .00057057  00000-0  35724-2 0  9999,2 51755  53.2150 305.8459 0001081  82.3971 277.7144 15.08858946 54325,6917.822,95.436,540.435,538.94,0.0
51755.0,STARLINK-3460,PAYLOAD,2023-02-11 23:37:10,15.08849942,9.39e-05,53.2151,304.6555,73.5605,286.549,0.0030974,0.00049366,0.0,0 STARLINK-3460,1 51755U 22016AT  23042.98415278  .00049366  00000-0  30974-2 0  9992,2 51755  53.2151 304.6555 0000939  73.5605 286.5490 15.08849942 55472,6917.85,95.437,540.365,539.065,0.0
51755.0,STARLINK-3460,PAYLOAD,2023-02-12 10:44:53,15.0882847,0.0002367,53.2154,302.5739,72.1352,287.9898,0.00088232,0.00013778,0.0,0 STARLINK-3460,1 51755U 22016AT  23043.44784328  .00013778  00000-0  88232-3 0  9998,2 51755  53.2154 302.5739 0002367  72.1352 287.9898 15.08828470 55545,6917.916,95.438,541.418,538.143,0.0
51755.0,STARLINK-3460,PAYLOAD,2023-02-13 02:38:45,15.08835822,0.000196,53.2164,299.5997,71.9447,288.1759,0.0011812,0.00018559,0.0,0 STARLINK-3460,1 51755U 22016AT  23044.11024652  .00018559  00000-0  11812-2 0  9991,2 51755  53.2164 299.5997 0001960  71.9447 288.1759 15.08835822 55646,6917.893,95.438,541.114,538.402,0.0
51755.0,STARLINK-3460,PAYLOAD,2023-02-14 02:29:31,15.08866034,0.0001556,53.2165,295.1384,71.5783,288.5378,0.001127,0.00017706,0.0,0 STARLINK-3460,1 51755U 22016AT  23045.10384044  .00017706  00000-0  11270-2 0  9996,2 51755  53.2165 295.1384 0001556  71.5783 288.5378 15.08866034 55795,6917.801,95.436,540.742,538.589,0.0
51755.0,STARLINK-3460,PAYLOAD,2023-02-14 16:48:00,15.08839376,0.0002021,53.2164,292.4616,80.6797,279.4423,0.0010019,0.00015693,0.0,0 STARLINK-3460,1 51755U 22016AT  23045.70000513  .00015693  00000-0  10019-2 0  9991,2 51755  53.2164 292.4616 0002021  80.6797 279.4423 15.08839376 55885,6917.882,95.438,541.145,538.349,0.0
51755.0,STARLINK-3460,PAYLOAD,2023-02-15 08:41:51,15.08846948,0.0001102,53.2146,289.4889,79.3907,280.7209,0.00043337,6.617e-05,0.0,0 STARLINK-3460,1 51755U 22016AT  23046.36240204  .00006617  00000-0  43337-3 0  9993,2 51755  53.2146 289.4889 0001102  79.3907 280.7209 15.08846948 55981,6917.859,95.437,540.486,538.962,0.0
51755.0,STARLINK-3460,PAYLOAD,2023-02-15 21:24:56,15.08855483,0.0001606,53.2174,287.1109,105.4252,254.6917,0.00054616,8.418e-05,0.0,0 STARLINK-3460,1 51755U 22016AT  23046.89231677  .00008418  00000-0  54616-3 0  9998,2 51755  53.2174 287.1109 0001606 105.4252 254.6917 15.08855483 54951,6917.833,95.437,540.809,538.587,0.0
51755.0,STARLINK-3460,PAYLOAD,2023-02-16 08:32:37,15.08860605,6.63e-05,53.2155,285.0298,66.4405,293.6657,0.00046915,7.191e-05,0.0,0 STARLINK-3460,1 51755U 22016AT  23047.35599104  .00007191  00000-0  46915-3 0  9992,2 51755  53.2155 285.0298 0000663  66.4405 293.6657 15.08860605 55029,6917.817,95.436,540.141,539.224,0.0
51755.0,STARLINK-3460,PAYLOAD,2023-02-17 02:01:53,15.08830067,0.0001551,53.2123,281.7587,76.7,283.4165,-0.00016862,-2.97e-05,0.0,0 STARLINK-3460,1 51755U 22016AT  23048.08464504 -.00002970  00000-0 -16862-3 0  9998,2 51755  53.2123 281.7587 0001551  76.7000 283.4165 15.08830067 56245,6917.911,95.438,540.849,538.703,0.0
51755.0,STARLINK-3460,PAYLOAD,2023-02-17 14:44:58,15.08829537,0.0001547,53.2136,279.3792,80.1312,279.9855,-8.0735e-05,-1.572e-05,0.0,0 STARLINK-3460,1 51755U 22016AT  23048.61456846 -.00001572  00000-0 -80735-4 0  9995,2 51755  53.2136 279.3792 0001547  80.1312 279.9855 15.08829537 55212,6917.912,95.438,540.848,538.707,0.0
51755.0,STARLINK-3460,PAYLOAD,2023-02-17 21:06:31,15.08828883,0.0001098,53.2152,278.1893,80.9803,279.1313,-0.00012105,-2.213e-05,0.0,0 STARLINK-3460,1 51755U 22016AT  23048.87952946 -.00002213  00000-0 -12105-3 0  9993,2 51755  53.2152 278.1893 0001098  80.9803 279.1313 15.08828883 55251,6917.914,95.438,540.539,539.02,0.0
51755.0,STARLINK-3460,PAYLOAD,2023-02-18 08:14:13,15.08835375,0.0001205,53.2151,276.1076,63.4777,296.6338,0.00015056,2.109e-05,0.0,0 STARLINK-3460,1 51755U 22016AT  23049.34321022  .00002109  00000-0  15056-3 0  9991,2 51755  53.2151 276.1076 0001205  63.4777 296.6338 15.08835375 56433,6917.895,95.438,540.593,538.926,0.0
51755.0,STARLINK-3460,PAYLOAD,2023-02-18 14:35:46,15.08837583,0.0001195,53.2147,274.9178,65.6609,294.4508,0.00036375,5.506e-05,0.0,0 STARLINK-3460,1 51755U 22016AT  23049.60817337  .00005506  00000-0  36375-3 0  9990,2 51755  53.2147 274.9178 0001195  65.6609 294.4508 15.08837583 55362,6917.888,95.438,540.579,538.926,0.0
51755.0,STARLINK-3460,PAYLOAD,2023-02-19 14:26:32,15.08848149,0.0001315,53.2133,270.4588,64.5455,295.5673,0.00016051,2.268e-05,0.0,0 STARLINK-3460,1 51755U 22016AT  23050.60176740  .00002268  00000-0  16051-3 0  9999,2 51755  53.2133 270.4588 0001315  64.5455 295.5673 15.08848149 56629,6917.855,95.437,540.63,538.811,0.0
51755.0,STARLINK-3460,PAYLOAD,2023-02-20 07:55:48,15.08824526,0.000218,53.215,267.1866,79.5059,280.6179,-0.00019646,-3.412e-05,0.0,0 STARLINK-3460,1 51755U 22016AT  23051.33041971 -.00003412  00000-0 -19646-3 0  9994,2 51755  53.2150 267.1866 0002180  79.5059 280.6179 15.08824526 56738,6917.928,95.439,541.301,538.285,0.0
51755.0,STARLINK-3460,PAYLOAD,2023-02-20 09:31:10,15.08840823,0.0001133,53.2145,266.8897,71.046,289.0655,2.8032e-05,1.58e-06,0.0,0 STARLINK-3460,1 51755U 22016AT  23051.39664832  .00000158  00000-0  28032-4 0  9999,2 51755  53.2145 266.8897 0001133  71.0460 289.0655 15.08840823 56743,6917.878,95.438,540.527,538.959,0.0
51755.0,STARLINK-3460,PAYLOAD,2023-02-20 23:49:37,15.0885138,0.0001234,53.2151,264.2119,77.0697,283.0433,4.6591e-05,4.54e-06,0.0,0 STARLINK-3460,1 51755U 22016AT  23051.99280057  .00000454  00000-0  46591-4 0  9997,2 51755  53.2151 264.2119 0001234  77.0697 283.0433 15.08851380 56837,6917.846,95.437,540.564,538.857,0.0
51755.0,STARLINK-3460,PAYLOAD,2023-02-21 09:21:57,15.08845189,0.0001315,53.2145,262.4278,77.3844,282.7295,3.9046e-05,3.34e-06,0.0,0 STARLINK-3460,1 51755U 22016AT  23052.39024313  .00000334  00000-0  39046-4 0  9997,2 51755  53.2145 262.4278 0001315  77.3844 282.7295 15.08845189 56891,6917.865,95.437,540.639,538.82,0.0
51755.0,STARLINK-3460,PAYLOAD,2023-02-21 20:29:38,15.0884633,0.000115,53.2148,260.3455,79.8007,280.3115,0.00010447,1.375e-05,0.0,0 STARLINK-3460,1 51755U 22016AT  23052.85391890  .00001375  00000-0  10447-3 0  9994,2 51755  53.2148 260.3455 0001150  79.8007 280.3115 15.08846330 55852,6917.861,95.437,540.522,538.93,0.0
51755.0,STARLINK-3460,PAYLOAD,2023-02-21 23:40:24,15.08849406,0.0001173,53.215,259.7505,78.2546,281.8577,5.7717e-05,6.31e-06,0.0,0 STARLINK-3460,1 51755U 22016AT  23052.98639766  .00000631  00000-0  57717-4 0  9991,2 51755  53.2150 259.7505 0001173  78.2546 281.8577 15.08849406 55876,6917.852,95.437,540.528,538.905,0.0
51755.0,STARLINK-3460,PAYLOAD,2023-02-22 17:09:40,15.0883277,0.0001108,53.2148,256.4801,83.2234,276.8885,2.058e-05,4e-07,0.0,0 STARLINK-3460,1 51755U 22016AT  23053.71504864  .00000040  00000-0  20580-4 0  9995,2 51755  53.2148 256.4801 0001108  83.2234 276.8885 15.08832770 57092,6917.902,95.438,540.534,539.001,0.0
51755.0,STARLINK-3460,PAYLOAD,2023-02-22 20:20:26,15.08834971,0.0001103,53.2148,255.885,83.3901,276.7216,3.3232e-05,2.41e-06,0.0,0 STARLINK-3460,1 51755U 22016AT  23053.84752685  .00000241  00000-0  33232-4 0  9996,2 51755  53.2148 255.8850 0001103  83.3901 276.7216 15.08834971 56008,6917.896,95.438,540.524,538.998,0.0
51755.0,STARLINK-3460,PAYLOAD,2023-02-23 05:52:44,15.08839728,0.0001211,53.2155,254.1,82.2681,277.8448,2.7776e-05,1.54e-06,0.0,0 STARLINK-3460,1 51755U 22016AT  23054.24496397  .00000154  00000-0  27776-4 0  9995,2 51755  53.2155 254.1000 0001211  82.2681 277.8448 15.08839728 57171,6917.881,95.438,540.584,538.908,0.0
51755.0,STARLINK-3460,PAYLOAD,2023-02-23 13:49:40,15.08839209,0.000107,53.2148,252.6139,96.4126,263.6988,5.2098e-05,5.41e-06,0.0,0 STARLINK-3460,1 51755U 22016AT  23054.57616308  .00000541  00000-0  52098-4 0  9992,2 51755  53.2148 252.6139 0001070  96.4126 263.6988 15.08839209 56112,6917.883,95.438,540.488,539.008,0.0
51755.0,STARLINK-3460,PAYLOAD,2023-02-23 20:11:12,15.08843262,0.0001085,53.2143,251.425,87.7084,272.4032,8.5895e-05,1.08e-05,0.0,0 STARLINK-3460,1 51755U 22016AT  23054.84112013  .00001080  00000-0  85895-4 0  9996,2 51755  53.2143 251.4250 0001085  87.7084 272.4032 15.08843262 56156,6917.87,95.437,540.486,538.985,0.0
51755.0,STARLINK-3460,PAYLOAD,2023-02-23 23:21:58,15.08847791,0.0001087,53.2147,250.83,86.3859,273.7257,8.7883e-05,1.111e-05,0.0,0 STARLINK-3460,1 51755U 22016AT  23054.97359847  .00001111  00000-0  87883-4 0  9992,2 51755  53.2147 250.8300 0001087  86.3859 273.7257 15.08847791 57285,6917.857,95.437,540.474,538.97,0.0
51755.0,STARLINK-3460,PAYLOAD,2023-02-24 15:15:51,15.08833181,0.0001124,53.2155,247.855,81.3971,278.7148,2.4468e-05,1.02e-06,0.0,0 STARLINK-3460,1 51755U 22016AT  23055.63601147  .00000102  00000-0  24468-4 0  9998,2 51755  53.2155 247.8550 0001124  81.3971 278.7148 15.08833181 57382,6917.901,95.438,540.544,538.989,0.0
